{
  "type": "FeatureCollection",
  "features": [
    {
      "type": "Feature",
      "properties": {
        "norad_id": 33860,
        "name": "IRIDIUM 33 DEB",
        "group": "iridium-33-debris",
        "lat": -75.30758652719575,
        "lon": 12.452951274748523,
        "alt_km": 674.7855103484317,
        "timestamp": "2025-12-14T14:39:29.753969+00:00",
        "meta_object_name": "IRIDIUM 33 DEB",
        "meta_object_id": "1997-051AD",
        "meta_epoch": "2025-12-13T15:00:21.453120",
        "meta_mean_motion": 14.67386178,
        "meta_eccentricity": 0.00073265,
        "meta_inclination": 86.3837,
        "meta_ra_of_asc_node": 26.8461,
        "meta_arg_of_pericenter": 354.8244,
        "meta_mean_anomaly": 126.8398,
        "meta_ephemeris_type": 0,
        "meta_classification_type": "U",
        "meta_norad_cat_id": 33860,
        "meta_element_set_no": 999,
        "meta_rev_at_epoch": 88735,
        "meta_bstar": 0.0013684197,
        "meta_mean_motion_dot": 7.759e-05,
        "meta_mean_motion_ddot": 0,
        "tle_line1": "1 33860U 97051AD  25347.62524830  .00007759  00000+0  13684-2 0  9994",
        "tle_line2": "2 33860  86.3837  26.8461 0007326 354.8244 126.8398 14.67386178887351"
      },
      "geometry": {
        "type": "Point",
        "coordinates": [
          12.452951274748523,
          -75.30758652719575
        ]
      }
    },
    {
      "type": "Feature",
      "properties": {
        "norad_id": 33862,
        "name": "IRIDIUM 33 DEB",
        "group": "iridium-33-debris",
        "lat": -26.804761952419998,
        "lon": 34.88709265116086,
        "alt_km": 667.9698885652633,
        "timestamp": "2025-12-14T14:39:29.753980+00:00",
        "meta_object_name": "IRIDIUM 33 DEB",
        "meta_object_id": "1997-051AF",
        "meta_epoch": "2025-12-13T21:34:59.258208",
        "meta_mean_motion": 14.69505974,
        "meta_eccentricity": 0.00533318,
        "meta_inclination": 86.4091,
        "meta_ra_of_asc_node": 37.0189,
        "meta_arg_of_pericenter": 65.2911,
        "meta_mean_anomaly": 107.2095,
        "meta_ephemeris_type": 0,
        "meta_classification_type": "U",
        "meta_norad_cat_id": 33862,
        "meta_element_set_no": 999,
        "meta_rev_at_epoch": 88840,
        "meta_bstar": 0.0015629204,
        "meta_mean_motion_dot": 9.498e-05,
        "meta_mean_motion_ddot": 0,
        "tle_line1": "1 33862U 97051AF  25347.89929697  .00009498  00000+0  15629-2 0  9998",
        "tle_line2": "2 33862  86.4091  37.0189 0053331  65.2911 107.2095 14.69505974888401"
      },
      "geometry": {
        "type": "Point",
        "coordinates": [
          34.88709265116086,
          -26.804761952419998
        ]
      }
    },
    {
      "type": "Feature",
      "properties": {
        "norad_id": 33866,
        "name": "IRIDIUM 33 DEB",
        "group": "iridium-33-debris",
        "lat": 78.71402370530848,
        "lon": -106.67768626989445,
        "alt_km": 752.1862531393435,
        "timestamp": "2025-12-14T14:39:29.753991+00:00",
        "meta_object_name": "IRIDIUM 33 DEB",
        "meta_object_id": "1997-051AK",
        "meta_epoch": "2025-12-13T20:14:24.786816",
        "meta_mean_motion": 14.25280587,
        "meta_eccentricity": 0.01145719,
        "meta_inclination": 86.2997,
        "meta_ra_of_asc_node": 92.5686,
        "meta_arg_of_pericenter": 157.8971,
        "meta_mean_anomaly": 328.6477,
        "meta_ephemeris_type": 0,
        "meta_classification_type": "U",
        "meta_norad_cat_id": 33866,
        "meta_element_set_no": 999,
        "meta_rev_at_epoch": 86826,
        "meta_bstar": 0.00088018555,
        "meta_mean_motion_dot": 2.237e-05,
        "meta_mean_motion_ddot": 0,
        "tle_line1": "1 33866U 97051AK  25347.84334244  .00002237  00000+0  88019-3 0  9993",
        "tle_line2": "2 33866  86.2997  92.5686 0114571 157.8971 328.6477 14.25280587868261"
      },
      "geometry": {
        "type": "Point",
        "coordinates": [
          -106.67768626989445,
          78.71402370530848
        ]
      }
    },
    {
      "type": "Feature",
      "properties": {
        "norad_id": 33867,
        "name": "IRIDIUM 33 DEB",
        "group": "iridium-33-debris",
        "lat": 27.96292663653344,
        "lon": -8.934803408254044,
        "alt_km": 348.32464283004447,
        "timestamp": "2025-12-14T14:39:29.754002+00:00",
        "meta_object_name": "IRIDIUM 33 DEB",
        "meta_object_id": "1997-051AL",
        "meta_epoch": "2025-12-13T23:15:09.154080",
        "meta_mean_motion": 15.70457294,
        "meta_eccentricity": 0.00131662,
        "meta_inclination": 86.365,
        "meta_ra_of_asc_node": 349.4658,
        "meta_arg_of_pericenter": 89.1774,
        "meta_mean_anomaly": 271.1005,
        "meta_ephemeris_type": 0,
        "meta_classification_type": "U",
        "meta_norad_cat_id": 33867,
        "meta_element_set_no": 999,
        "meta_rev_at_epoch": 89530,
        "meta_bstar": 0.0079196879,
        "meta_mean_motion_dot": 0.01079904,
        "meta_mean_motion_ddot": 0,
        "tle_line1": "1 33867U 97051AL  25347.96885595  .01079904  00000+0  79197-2 0  9999",
        "tle_line2": "2 33867  86.3650 349.4658 0013166  89.1774 271.1005 15.70457294895304"
      },
      "geometry": {
        "type": "Point",
        "coordinates": [
          -8.934803408254044,
          27.96292663653344
        ]
      }
    },
    {
      "type": "Feature",
      "properties": {
        "norad_id": 33870,
        "name": "IRIDIUM 33 DEB",
        "group": "iridium-33-debris",
        "lat": -21.14312079174403,
        "lon": 56.053846562794405,
        "alt_km": 759.5030133741247,
        "timestamp": "2025-12-14T14:39:29.754013+00:00",
        "meta_object_name": "IRIDIUM 33 DEB",
        "meta_object_id": "1997-051AP",
        "meta_epoch": "2025-12-13T17:44:33.430848",
        "meta_mean_motion": 14.45859763,
        "meta_eccentricity": 0.00215693,
        "meta_inclination": 86.3748,
        "meta_ra_of_asc_node": 57.8322,
        "meta_arg_of_pericenter": 174.8815,
        "meta_mean_anomaly": 310.7154,
        "meta_ephemeris_type": 0,
        "meta_classification_type": "U",
        "meta_norad_cat_id": 33870,
        "meta_element_set_no": 999,
        "meta_rev_at_epoch": 88151,
        "meta_bstar": 0.00098021698,
        "meta_mean_motion_dot": 3.509e-05,
        "meta_mean_motion_ddot": 0,
        "tle_line1": "1 33870U 97051AP  25347.73927582  .00003509  00000+0  98022-3 0  9997",
        "tle_line2": "2 33870  86.3748  57.8322 0021569 174.8815 310.7154 14.45859763881519"
      },
      "geometry": {
        "type": "Point",
        "coordinates": [
          56.053846562794405,
          -21.14312079174403
        ]
      }
    },
    {
      "type": "Feature",
      "properties": {
        "norad_id": 33881,
        "name": "IRIDIUM 33 DEB",
        "group": "iridium-33-debris",
        "lat": -79.36910017365564,
        "lon": 86.25183138584958,
        "alt_km": 727.2685330640334,
        "timestamp": "2025-12-14T14:39:29.754022+00:00",
        "meta_object_name": "IRIDIUM 33 DEB",
        "meta_object_id": "1997-051BA",
        "meta_epoch": "2025-12-13T19:48:25.638336",
        "meta_mean_motion": 14.56605149,
        "meta_eccentricity": 0.00614683,
        "meta_inclination": 86.3859,
        "meta_ra_of_asc_node": 106.2704,
        "meta_arg_of_pericenter": 171.1781,
        "meta_mean_anomaly": 312.0247,
        "meta_ephemeris_type": 0,
        "meta_classification_type": "U",
        "meta_norad_cat_id": 33881,
        "meta_element_set_no": 999,
        "meta_rev_at_epoch": 87516,
        "meta_bstar": 0.0023630545,
        "meta_mean_motion_dot": 0.00010834,
        "meta_mean_motion_ddot": 0,
        "tle_line1": "1 33881U 97051BA  25347.82529674  .00010834  00000+0  23631-2 0  9991",
        "tle_line2": "2 33881  86.3859 106.2704 0061468 171.1781 312.0247 14.56605149875162"
      },
      "geometry": {
        "type": "Point",
        "coordinates": [
          86.25183138584958,
          -79.36910017365564
        ]
      }
    },
    {
      "type": "Feature",
      "properties": {
        "norad_id": 33884,
        "name": "IRIDIUM 33 DEB",
        "group": "iridium-33-debris",
        "lat": 6.249281981317808,
        "lon": 9.37245707692517,
        "alt_km": 635.1912591782584,
        "timestamp": "2025-12-14T14:39:29.754033+00:00",
        "meta_object_name": "IRIDIUM 33 DEB",
        "meta_object_id": "1997-051BD",
        "meta_epoch": "2025-12-14T00:18:06.589728",
        "meta_mean_motion": 14.77464877,
        "meta_eccentricity": 0.00095552,
        "meta_inclination": 86.3704,
        "meta_ra_of_asc_node": 9.2441,
        "meta_arg_of_pericenter": 319.0291,
        "meta_mean_anomaly": 107.6771,
        "meta_ephemeris_type": 0,
        "meta_classification_type": "U",
        "meta_norad_cat_id": 33884,
        "meta_element_set_no": 999,
        "meta_rev_at_epoch": 88866,
        "meta_bstar": 0.0016029704,
        "meta_mean_motion_dot": 0.00011458,
        "meta_mean_motion_ddot": 0,
        "tle_line1": "1 33884U 97051BD  25348.01257627  .00011458  00000+0  16030-2 0  9990",
        "tle_line2": "2 33884  86.3704   9.2441 0009555 319.0291 107.6771 14.77464877888665"
      },
      "geometry": {
        "type": "Point",
        "coordinates": [
          9.37245707692517,
          6.249281981317808
        ]
      }
    }
  ]
}